NORAD_CAT_ID,OBJECT_NAME,OBJECT_TYPE,EPOCH,MEAN_MOTION,ECCENTRICITY,INCLINATION,RA_OF_ASC_NODE,ARG_OF_PERICENTER,MEAN_ANOMALY,BSTAR,MEAN_MOTION_DOT,MEAN_MOTION_DDOT,TLE_LINE0,TLE_LINE1,TLE_LINE2,SEMIMAJOR_AXIS,PERIOD,APOGEE,PERIGEE,DECAYED
53144.0,STARLINK-4100,PAYLOAD,2022-07-31 20:00:01,15.73264015,0.0001730999999999,53.2187,336.3556,336.1909,189.9592,-7.3e-05,-0.00010881,0.0,0 STARLINK-4100,1 53144U 22083N   22212.83334491 -.00010881  00000-0 -73000-4 0  9990,2 53144  53.2187 336.3556 0001731 336.1909 189.9592 15.73264015  2895,6727.7130000000025,91.529,350.742,348.413,0.0
53144.0,STARLINK-4100,PAYLOAD,2022-07-31 22:00:00,15.73305073,0.0001714,53.2185,335.9426,335.5632,302.8269,-0.00078371,-0.00109683,0.0,0 STARLINK-4100,1 53144U 22083N   22212.91667824 -.00109683  00000-0 -78371-3 0  9992,2 53144  53.2185 335.9426 0001714 335.5632 302.8269 15.73305073  1303,6727.596,91.527,350.61400000000015,348.30800000000005,0.0
53144.0,STARLINK-4100,PAYLOAD,2022-08-01 14:00:01,15.73230445,0.0001659,53.2184,332.644,348.4273,107.9415,-0.00047046,-0.00066217,0.0,0 STARLINK-4100,1 53144U 22083N   22213.58334491 -.00066217  00000-0 -47046-3 0  9997,2 53144  53.2184 332.6440 0001659 348.4273 107.9415 15.73230445  3011,6727.808000000001,91.531,350.79,348.557,0.0
53144.0,STARLINK-4100,PAYLOAD,2022-08-01 22:00:00,15.73226686,0.0001726,53.2183,330.9945,353.2585,192.0397,-0.00024821,-0.0003535,0.0,0 STARLINK-4100,1 53144U 22083N   22213.91667824 -.00035350  00000-0 -24821-3 0  9993,2 53144  53.2183 330.9945 0001726 353.2585 192.0397 15.73226686  3067,6727.819,91.532,350.845,348.523,0.0
53144.0,STARLINK-4100,PAYLOAD,2022-08-02 14:00:01,15.73183786,0.0001841,53.2187,327.6956,3.8203,359.3312,-1.1324e-05,-2.208e-05,0.0,0 STARLINK-4100,1 53144U 22083N   22214.58334491 -.00002208  00000-0 -11324-4 0  9999,2 53144  53.2187 327.6956 0001841   3.8203 359.3312 15.73183786  1302,6727.941,91.534,351.045,348.5680000000001,0.0
53144.0,STARLINK-4100,PAYLOAD,2022-08-03 04:00:00,15.73217087,0.0001766999999999,53.2183,324.8075,5.7705,63.0071,-0.00011571,-0.0001684,0.0,0 STARLINK-4100,1 53144U 22083N   22215.16667824 -.00016840  00000-0 -11571-3 0  9993,2 53144  53.2183 324.8075 0001767   5.7705  63.0071 15.73217087  3253,6727.846,91.532,350.9,348.523,0.0
53144.0,STARLINK-4100,PAYLOAD,2022-08-03 14:00:01,15.73184313,0.0002044,53.2181,322.7477,12.1801,257.7768,8.0368e-05,0.00010665,0.0,0 STARLINK-4100,1 53144U 22083N   22215.58334491  .00010665  00000-0  80368-4 0  9998,2 53144  53.2181 322.7477 0002044  12.1801 257.7768 15.73184313  1306,6727.94,91.534,351.18,348.43,0.0
53144.0,STARLINK-4100,PAYLOAD,2022-08-03 22:00:01,15.73222741,0.0002096,53.218,321.0977,11.0518,347.8841,-4.3359e-05,-6.708e-05,0.0,0 STARLINK-4100,1 53144U 22083N   22215.91668981 -.00006708  00000-0 -43359-4 0  9993,2 53144  53.2180 321.0977 0002096  11.0518 347.8841 15.73222741  1303,6727.83,91.532,351.105,348.285,0.0
53144.0,STARLINK-4100,PAYLOAD,2022-08-04 06:00:00,15.73217302,0.0001972,53.2184,319.4466,17.6136,70.2063,-0.00025871,-0.000368,0.0,0 STARLINK-4100,1 53144U 22083N   22216.25001157 -.00036800  00000-0 -25871-3 0  9991,2 53144  53.2184 319.4466 0001972  17.6136  70.2063 15.73217302  3437,6727.846,91.532,351.038,348.384,0.0
53144.0,STARLINK-4100,PAYLOAD,2022-08-04 14:00:01,15.73181215,0.0002338,53.2183,317.7989,19.6824,157.0731,0.00013586,0.00018474,0.0,0 STARLINK-4100,1 53144U 22083N   22216.58334491  .00018474  00000-0  13586-3 0  9992,2 53144  53.2183 317.7989 0002338  19.6824 157.0731 15.73181215  1303,6727.949000000001,91.534,351.38699999999994,348.241,0.0
53144.0,STARLINK-4100,PAYLOAD,2022-08-04 20:00:01,15.73232397,0.0002434,53.218,316.562,20.8144,132.6254,-0.00051177,-0.00071945,0.0,0 STARLINK-4100,1 53144U 22083N   22216.83334491 -.00071945  00000-0 -51177-3 0  9992,2 53144  53.2180 316.5620 0002434  20.8144 132.6254 15.73232397  3528,6727.803000000001,91.531,351.305,348.03,0.0
53144.0,STARLINK-4100,PAYLOAD,2022-08-04 22:00:00,15.73240531,0.000237,53.218,316.149,21.8794,243.7937,-0.00078948,-0.00110189,0.0,0 STARLINK-4100,1 53144U 22083N   22216.91667824 -.00110189  00000-0 -78948-3 0  9999,2 53144  53.2180 316.1490 0002370  21.8794 243.7937 15.73240531  1305,6727.78,91.531,351.23900000000015,348.05,0.0
53144.0,STARLINK-4100,PAYLOAD,2022-08-05 12:00:00,15.73200504,0.0002496,53.2179,313.2629,25.8503,305.431,1.8821e-05,2.02e-05,0.0,0 STARLINK-4100,1 53144U 22083N   22217.50001157  .00002020  00000-0  18821-4 0  9993,2 53144  53.2179 313.2629 0002496  25.8503 305.4310 15.73200504  3620,6727.894,91.533,351.43800000000016,348.079,0.0
53144.0,STARLINK-4100,PAYLOAD,2022-08-05 14:00:01,15.73193795,0.0002556,53.2179,312.851,25.4814,58.0984,0.00017762,0.00024375,0.0,0 STARLINK-4100,1 53144U 22083N   22217.58335648  .00024375  00000-0  17762-3 0  9995,2 53144  53.2179 312.8510 0002556  25.4814  58.0984 15.73193795  1306,6727.913000000001,91.534,351.49800000000016,348.05800000000005,0.0
53144.0,STARLINK-4100,PAYLOAD,2022-08-05 22:00:00,15.73246075,0.0002493,53.2178,311.2006,23.8915,148.5487,-0.00019741,-0.00028293,0.0,0 STARLINK-4100,1 53144U 22083N   22217.91667824 -.00028293  00000-0 -19741-3 0  9990,2 53144  53.2178 311.2006 0002493  23.8915 148.5487 15.73246075  1305,6727.764,91.531,351.306,347.952,0.0
53144.0,STARLINK-4100,PAYLOAD,2022-08-06 14:00:01,15.73200409,0.0002628999999999,53.2183,307.9023,20.6143,329.7379,0.00015681,0.00021445,0.0,0 STARLINK-4100,1 53144U 22083N   22218.58334491  .00021445  00000-0  15681-3 0  9994,2 53144  53.2183 307.9023 0002629  20.6143 329.7379 15.73200409  1305,6727.894,91.533,351.528,347.99,0.0
53144.0,STARLINK-4100,PAYLOAD,2022-08-06 20:00:01,15.73253063,0.0002607,53.218,306.6648,16.6953,310.3517,-0.00066214,-0.00092759,0.0,0 STARLINK-4100,1 53144U 22083N   22218.83334491 -.00092759  00000-0 -66214-3 0  9998,2 53144  53.2180 306.6648 0002607  16.6953 310.3517 15.73253063  3835,6727.744000000002,91.53,351.36300000000006,347.855,0.0
53144.0,STARLINK-4100,PAYLOAD,2022-08-06 22:00:00,15.73236655,0.0002534,53.2181,306.2518,16.78,62.5117,-0.00058376,-0.00081898,0.0,0 STARLINK-4100,1 53144U 22083N   22218.91667824 -.00081898  00000-0 -58376-3 0  9998,2 53144  53.2181 306.2518 0002534  16.7800  62.5117 15.73236655  1309,6727.791,91.531,351.36,347.951,0.0
53144.0,STARLINK-4100,PAYLOAD,2022-08-07 04:00:00,15.73155659,0.0002392,53.2181,305.0137,17.6141,38.3819,0.00047849,0.00066946,0.0,0 STARLINK-4100,1 53144U 22083N   22219.16667824  .00066946  00000-0  47849-3 0  9994,2 53144  53.2181 305.0137 0002392  17.6141  38.3819 15.73155659  3882,6728.022,91.536,351.496,348.277,0.0
53144.0,STARLINK-4100,PAYLOAD,2022-08-07 12:54:42,15.73213936,0.0002705,53.2187,303.1752,19.3952,340.717,6.7874e-05,8.92e-05,0.0,0 STARLINK-4100,1 53144U 22083N   22219.53798622  .00008920  00000-0  67874-4 0  9995,2 53144  53.2187 303.1752 0002705  19.3952 340.7170 15.73213936  3329,6727.855,91.532,351.54,347.901,0.0
53144.0,STARLINK-4100,PAYLOAD,2022-08-07 20:00:01,15.73235366,0.0002663999999999,53.2176,301.7165,12.6194,221.2386,-0.00041493,-0.0005855,0.0,0 STARLINK-4100,1 53144U 22083N   22219.83334491 -.00058550  00000-0 -41493-3 0  9992,2 53144  53.2176 301.7165 0002664  12.6194 221.2386 15.73235366  3993,6727.794,91.531,351.452,347.867,0.0
53144.0,STARLINK-4100,PAYLOAD,2022-08-07 22:00:00,15.73210532,0.0002569,53.2179,301.3035,12.621,333.4817,-0.00011093,-0.0001617,0.0,0 STARLINK-4100,1 53144U 22083N   22219.91667824 -.00016170  00000-0 -11093-3 0  9995,2 53144  53.2179 301.3035 0002569  12.6210 333.4817 15.73210532  1307,6727.865,91.533,351.459,348.00199999999984,0.0
53144.0,STARLINK-4100,PAYLOAD,2022-08-08 04:00:00,15.73186968,0.0002483,53.218,300.0653,13.5036,309.3051,0.00061163,0.0008606,0.0,0 STARLINK-4100,1 53144U 22083N   22220.16667824  .00086060  00000-0  61163-3 0  9990,2 53144  53.2180 300.0653 0002483  13.5036 309.3051 15.73186968  4043,6727.932,91.534,351.468,348.12699999999984,0.0
53144.0,STARLINK-4100,PAYLOAD,2022-08-08 14:00:01,15.7325577,0.0002872,53.2184,298.0058,15.1558,148.9379,0.00034495,0.00048191,0.0,0 STARLINK-4100,1 53144U 22083N   22220.58335648  .00048191  00000-0  34495-3 0  9993,2 53144  53.2184 298.0058 0002872  15.1558 148.9379 15.73255770  1305,6727.736,91.53,351.533,347.6690000000001,0.0
53144.0,STARLINK-4100,PAYLOAD,2022-08-08 20:00:01,15.73408561,0.0002751999999999,53.2175,296.7657,18.7616,122.0814,-0.0021785,-0.00298522,0.0,0 STARLINK-4100,1 53144U 22083N   22220.83335648 -.00298522  00000-0 -21785-2 0  9995,2 53144  53.2175 296.7657 0002752  18.7616 122.0814 15.73408561  4157,6727.301,91.521,351.017,347.314,0.0
53144.0,STARLINK-4100,PAYLOAD,2022-08-08 22:00:00,15.7356239,0.0002331,53.2179,296.3523,13.1757,239.8387,-0.005834,-0.00761175,0.0,0 STARLINK-4100,1 53144U 22083N   22220.91667824 -.00761175  00000-0 -58340-2 0  9994,2 53144  53.2179 296.3523 0002331  13.1757 239.8387 15.73562390  1304,6726.861999999999,91.512,350.295,347.159,0.0
53144.0,STARLINK-4100,PAYLOAD,2022-08-09 12:00:00,15.72942855,0.0002583,53.2174,293.4637,10.7117,307.577,-0.0089993,-0.01117284,0.0,0 STARLINK-4100,1 53144U 22083N   22221.50001157 -.01117284  00000-0 -89993-2 0  9996,2 53144  53.2174 293.4637 0002583  10.7117 307.5770 15.72942855  4258,6728.628000000002,91.548,352.231,348.755,0.0
53144.0,STARLINK-4100,PAYLOAD,2022-08-09 14:00:01,15.72735686,0.0002747,53.2176,293.0519,12.4441,57.9679,-0.0089976,-0.01108284,0.0,0 STARLINK-4100,1 53144U 22083N   22221.58334491 -.01108284  00000-0 -89976-2 0  9995,2 53144  53.2176 293.0519 0002747  12.4441  57.9679 15.72735686  1305,6729.219,91.56,352.93300000000005,349.236,0.0
53144.0,STARLINK-4100,PAYLOAD,2022-08-09 22:00:00,15.71934497,0.0003073,53.2175,291.4032,10.0834,148.2079,-0.0093351,-0.01110875,0.0,0 STARLINK-4100,1 53144U 22083N   22221.91667824 -.01110875  00000-0 -93351-2 0  9992,2 53144  53.2175 291.4032 0003073  10.0834 148.2079 15.71934497  1307,6731.505999999999,91.607,355.439,351.302,0.0
